[
    {
        "Altitude(m)": 617710.6784665714,
        "Argument of Periapsis(deg)": 0.0,
        "Eccentricity": 0.0,
        "Inclination(deg)": 60.0,
        "Latitude(deg)": -41.10276519658124,
        "Longitude(deg)": -155.03342653418565,
        "Mean Anomaly(deg)": -49.09089999999994,
        "RAAN(deg)": 335.0,
        "Satellite Name": "Test1 1493",
        "Satellite Number": 1493,
        "Semi-Major Axis(m)": 6980739.136638005,
        "Time(s)": 0
    },
    {
        "Altitude(m)": 617517.9770742616,
        "Argument of Periapsis(deg)": 0.00010418945913296404,
        "Eccentricity": 0.0,
        "Inclination(deg)": 60.0,
        "Latitude(deg)": -40.63697272347309,
        "Longitude(deg)": -154.53663122716293,
        "Mean Anomaly(deg)": -48.470793854538094,
        "RAAN(deg)": 334.99957995086027,
        "Satellite Name": "Test1 1493",
        "Satellite Number": 1493,
        "Semi-Major Axis(m)": 6980739.136638005,
        "Time(s)": 10
    }
]